NORAD_CAT_ID,OBJECT_NAME,OBJECT_TYPE,EPOCH,MEAN_MOTION,ECCENTRICITY,INCLINATION,RA_OF_ASC_NODE,ARG_OF_PERICENTER,MEAN_ANOMALY,BSTAR,MEAN_MOTION_DOT,MEAN_MOTION_DDOT,TLE_LINE0,TLE_LINE1,TLE_LINE2,SEMIMAJOR_AXIS,PERIOD,APOGEE,PERIGEE,DECAYED
52657.0,STARLINK-4084,PAYLOAD,2024-05-12 02:08:05,15.0874815,0.0001434,53.2169,266.9245,104.5347,255.5804,-0.0033202,-0.00052611,0.0,0 STARLINK-4084,1 52657U 22053B   24133.08895398 -.00052611  00000-0 -33202-2 0  9999,2 52657  53.2169 266.9245 0001434 104.5347 255.5804 15.08748150110777,6918.161,95.443,541.018,539.034,0.0
52657.0,STARLINK-4084,PAYLOAD,2024-05-12 13:15:50,15.08763365,0.0001221,53.2168,264.8444,94.364,265.7491,0.00035755,5.395e-05,0.0,0 STARLINK-4084,1 52657U 22053B   24133.55266728  .00005395  00000-0  35755-3 0  9991,2 52657  53.2168 264.8444 0001221  94.3640 265.7491 15.08763365110848,6918.115,95.442,540.824,539.135,0.0
52657.0,STARLINK-4084,PAYLOAD,2024-05-12 14:51:14,15.08745524,0.000117,53.2163,264.5472,102.1761,257.9362,0.0035378,0.0005632,0.0,0 STARLINK-4084,1 52657U 22053B   24133.61892059  .00056320  00000-0  35378-2 0  9994,2 52657  53.2163 264.5472 0001170 102.1761 257.9362 15.08745524110854,6918.169,95.444,540.844,539.225,0.0
52657.0,STARLINK-4084,PAYLOAD,2024-05-12 16:26:38,15.08755477,0.0001401,53.2165,264.2498,103.4439,256.6709,0.0038483,0.00061349,0.0,0 STARLINK-4084,1 52657U 22053B   24133.68516426  .00061349  00000-0  38483-2 0  9999,2 52657  53.2165 264.2498 0001401 103.4439 256.6709 15.08755477110864,6918.139,95.443,540.973,539.035,0.0
52657.0,STARLINK-4084,PAYLOAD,2024-05-13 01:58:57,15.08805168,0.0001427,53.217,262.4658,98.0577,262.0577,0.0017083,0.00026978,0.0,0 STARLINK-4084,1 52657U 22053B   24134.08261382  .00026978  00000-0  17083-2 0  9994,2 52657  53.2170 262.4658 0001427  98.0577 262.0577 15.08805168110922,6917.987,95.44,540.839,538.865,0.0
52657.0,STARLINK-4084,PAYLOAD,2024-05-13 08:20:30,15.08845377,9.02e-05,53.2176,261.2761,91.6903,268.4192,0.0023692,0.00037625,0.0,0 STARLINK-4084,1 52657U 22053B   24134.34757098  .00037625  00000-0  23692-2 0  9991,2 52657  53.2176 261.2761 0000902  91.6903 268.4192 15.08845377110962,6917.864,95.437,540.353,539.105,0.0
52657.0,STARLINK-4084,PAYLOAD,2024-05-13 14:42:02,15.08873672,0.0001017,53.2175,260.088,81.9789,278.1319,0.0019734,0.00031287,0.0,0 STARLINK-4084,1 52657U 22053B   24134.61252469  .00031287  00000-0  19734-2 0  9993,2 52657  53.2175 260.0880 0001017  81.9789 278.1319 15.08873672111006,6917.777,95.435,540.346,538.939,0.0
52657.0,STARLINK-4084,PAYLOAD,2024-05-13 17:52:47,15.0888804,0.0001409,53.2173,259.4931,81.3024,278.8128,0.001488,0.00023504,0.0,0 STARLINK-4084,1 52657U 22053B   24134.74499952  .00023504  00000-0  14880-2 0  9997,2 52657  53.2173 259.4931 0001409  81.3024 278.8128 15.08888040111026,6917.734,95.435,540.573,538.624,0.0
52657.0,STARLINK-4084,PAYLOAD,2024-05-14 08:11:14,15.08903545,0.0001489,53.2159,256.8166,79.1348,280.9811,0.0010187,0.0001599,0.0,0 STARLINK-4084,1 52657U 22053B   24135.34113803  .00015990  00000-0  10187-2 0  9998,2 52657  53.2159 256.8166 0001489  79.1348 280.9811 15.08903545111114,6917.686,95.434,540.581,538.521,0.0
52657.0,STARLINK-4084,PAYLOAD,2024-05-14 14:32:45,15.0891376,0.0001488,53.2161,255.6265,80.6479,279.4682,0.0011217,0.00017645,0.0,0 STARLINK-4084,1 52657U 22053B   24135.60608572  .00017645  00000-0  11217-2 0  9993,2 52657  53.2161 255.6265 0001488  80.6479 279.4682 15.08913760111158,6917.655,95.433,540.549,538.491,0.0
52657.0,STARLINK-4084,PAYLOAD,2024-05-15 12:48:07,15.08853874,0.0001368,53.2154,251.4619,63.5715,296.5417,-0.00080461,-0.00013075,0.0,0 STARLINK-4084,1 52657U 22053B   24136.53342562 -.00013075  00000-0 -80461-3 0  9993,2 52657  53.2154 251.4619 0001368  63.5715 296.5417 15.08853874111297,6917.838,95.437,540.649,538.757,0.0
52657.0,STARLINK-4084,PAYLOAD,2024-05-15 14:23:30,15.08853538,0.0001457,53.2166,251.1632,95.9578,264.158,-0.00063009,-0.00010306,0.0,0 STARLINK-4084,1 52657U 22053B   24136.59966421 -.00010306  00000-0 -63009-3 0  9998,2 52657  53.2166 251.1632 0001457  95.9578 264.1580 15.08853538111308,6917.839,95.437,540.712,538.696,0.0
52657.0,STARLINK-4084,PAYLOAD,2024-05-16 14:14:18,15.08859005,0.0001209,53.217,246.7039,74.7494,285.3631,0.001306,0.00020569,0.0,0 STARLINK-4084,1 52657U 22053B   24137.59326628  .00020569  00000-0  13060-2 0  9999,2 52657  53.2170 246.7039 0001209  74.7494 285.3631 15.08859005111454,6917.822,95.436,540.524,538.851,0.0
52657.0,STARLINK-4084,PAYLOAD,2024-05-17 12:29:42,15.08815751,0.0001422,53.2167,242.5393,105.6189,254.4961,-0.00066351,-0.00010825,0.0,0 STARLINK-4084,1 52657U 22053B   24138.52063210 -.00010825  00000-0 -66351-3 0  9996,2 52657  53.2167 242.5393 0001422 105.6189 254.4961 15.08815751111597,6917.955,95.439,540.803,538.836,0.0
52657.0,STARLINK-4084,PAYLOAD,2024-05-17 14:05:05,15.08816816,0.0001212,53.2164,242.2424,85.7705,274.3426,-0.00044459,-7.352e-05,0.0,0 STARLINK-4084,1 52657U 22053B   24138.58687452 -.00007352  00000-0 -44459-3 0  9998,2 52657  53.2164 242.2424 0001212  85.7705 274.3426 15.08816816111607,6917.951,95.439,540.655,538.978,0.0
52657.0,STARLINK-4084,PAYLOAD,2024-05-17 23:37:24,15.08832175,0.0001334,53.2172,240.458,81.3384,278.7759,0.00017518,2.501e-05,0.0,0 STARLINK-4084,1 52657U 22053B   24138.98431710  .00002501  00000-0  17518-3 0  9991,2 52657  53.2172 240.4580 0001334  81.3384 278.7759 15.08832175111668,6917.904,95.438,540.692,538.846,0.0
52657.0,STARLINK-4084,PAYLOAD,2024-05-18 12:20:29,15.08854598,0.0001807,53.2178,238.0821,113.7723,246.3459,0.0011619,0.00018259,0.0,0 STARLINK-4084,1 52657U 22053B   24139.51423290  .00018259  00000-0  11619-2 0  9997,2 52657  53.2178 238.0821 0001807 113.7723 246.3459 15.08854598111747,6917.836,95.437,540.951,538.451,0.0
52657.0,STARLINK-4084,PAYLOAD,2024-05-18 13:55:52,15.08867945,0.0001315,53.216,237.7829,84.0167,276.0975,0.0016472,0.00026045,0.0,0 STARLINK-4084,1 52657U 22053B   24139.58047311  .00026045  00000-0  16472-2 0  9994,2 52657  53.2160 237.7829 0001315  84.0167 276.0975 15.08867945111752,6917.795,95.436,540.57,538.75,0.0
52657.0,STARLINK-4084,PAYLOAD,2024-05-18 15:31:15,15.08874319,0.0001506,53.2168,237.4862,95.1522,264.9642,0.0016936,0.00026794,0.0,0 STARLINK-4084,1 52657U 22053B   24139.64671082  .00026794  00000-0  16936-2 0  9995,2 52657  53.2168 237.4862 0001506  95.1522 264.9642 15.08874319111765,6917.775,95.435,540.682,538.599,0.0
52657.0,STARLINK-4084,PAYLOAD,2024-05-19 13:46:38,15.08814009,0.0001267,53.2166,233.3208,106.3115,253.8016,-0.0021262,-0.00033943,0.0,0 STARLINK-4084,1 52657U 22053B   24140.57405221 -.00033943  00000-0 -21262-2 0  9993,2 52657  53.2166 233.3208 0001267 106.3115 253.8016 15.08814009111907,6917.96,95.439,540.701,538.948,0.0
52657.0,STARLINK-4084,PAYLOAD,2024-05-20 12:02:04,15.0884271,0.000126,53.216,229.1616,107.0822,253.0309,0.0023626,0.00037516,0.0,0 STARLINK-4084,1 52657U 22053B   24141.50143689  .00037516  00000-0  23626-2 0  9998,2 52657  53.2160 229.1616 0001260 107.0822 253.0309 15.08842710112046,6917.872,95.437,540.609,538.865,0.0
52657.0,STARLINK-4084,PAYLOAD,2024-05-20 13:37:27,15.08848124,0.0001274,53.2165,228.8652,98.5848,261.5288,0.0023869,0.00037913,0.0,0 STARLINK-4084,1 52657U 22053B   24141.56767709  .00037913  00000-0  23869-2 0  9999,2 52657  53.2165 228.8652 0001274  98.5848 261.5288 15.08848124112050,6917.856,95.437,540.602,538.839,0.0
52657.0,STARLINK-4084,PAYLOAD,2024-05-21 11:52:51,15.08844577,0.0001331,53.2174,224.6951,133.9694,226.1408,0.00022281,3.26e-05,0.0,0 STARLINK-4084,1 52657U 22053B   24142.49503520  .00003260  00000-0  22281-3 0  9997,2 52657  53.2174 224.6951 0001331 133.9694 226.1408 15.08844577112197,6917.866,95.437,540.652,538.811,0.0
52657.0,STARLINK-4084,PAYLOAD,2024-05-22 11:43:38,15.08836979,0.0001297,53.2175,220.2363,100.4911,259.6228,0.00043575,6.653e-05,0.0,0 STARLINK-4084,1 52657U 22053B   24143.48864268  .00006653  00000-0  43575-3 0  9994,2 52657  53.2175 220.2363 0001297 100.4911 259.6228 15.08836979112344,6917.89,95.438,540.652,538.857,0.0
52657.0,STARLINK-4084,PAYLOAD,2024-05-23 09:59:02,15.08837603,0.0001252,53.2166,216.0744,88.0904,272.0231,0.00011587,1.557e-05,0.0,0 STARLINK-4084,1 52657U 22053B   24144.41600219  .00001557  00000-0  11587-3 0  9998,2 52657  53.2166 216.0744 0001252  88.0904 272.0231 15.08837603112487,6917.888,95.438,540.619,538.887,0.0
52657.0,STARLINK-4084,PAYLOAD,2024-05-24 11:25:12,15.0884436,0.0001399,53.2161,211.3169,102.4885,257.6263,0.00012144,1.646e-05,0.0,0 STARLINK-4084,1 52657U 22053B   24145.47583783  .00001646  00000-0  12144-3 0  9990,2 52657  53.2161 211.3169 0001399 102.4885 257.6263 15.08844360112642,6917.867,95.437,540.7,538.764,0.0
52657.0,STARLINK-4084,PAYLOAD,2024-05-25 11:16:02,15.08806274,0.0001767,53.2168,206.8687,124.1288,235.9872,-0.00018692,-3.259e-05,0.0,0 STARLINK-4084,1 52657U 22053B   24146.46946837 -.00003259  00000-0 -18692-3 0  9991,2 52657  53.2168 206.8687 0001767 124.1288 235.9872 15.08806274112793,6917.983,95.44,541.071,538.626,0.0
52657.0,STARLINK-4084,PAYLOAD,2024-05-25 20:48:18,15.08842583,0.0001442,53.217,205.0888,155.8553,204.2507,0.00014556,2.03e-05,0.0,0 STARLINK-4084,1 52657U 22053B   24146.86687885  .00002030  00000-0  14556-3 0  9999,2 52657  53.2170 205.0888 0001442 155.8553 204.2507 15.08842583112850,6917.872,95.437,540.735,538.74,0.0
52657.0,STARLINK-4084,PAYLOAD,2024-05-26 14:17:32,15.08855935,0.0001136,53.2168,201.8158,86.8368,273.2755,0.00025837,3.828e-05,0.0,0 STARLINK-4084,1 52657U 22053B   24147.59551009  .00003828  00000-0  25837-3 0  9998,2 52657  53.2168 201.8158 0001136  86.8368 273.2755 15.08855935112966,6917.832,95.437,540.483,538.911,0.0
52657.0,STARLINK-4084,PAYLOAD,2024-05-27 07:46:47,15.08828321,0.000161,53.2168,198.5317,108.1949,251.9218,0.0003054,4.574e-05,0.0,0 STARLINK-4084,1 52657U 22053B   24148.32416643  .00004574  00000-0  30540-3 0  9990,2 52657  53.2168 198.5317 0001610 108.1949 251.9218 15.08828321113074,6917.916,95.438,540.895,538.667,0.0
